OBJECT_NAME,OBJECT_ID,EPOCH,MEAN_MOTION,ECCENTRICITY,INCLINATION,RA_OF_ASC_NODE,ARG_OF_PERICENTER,MEAN_ANOMALY,EPHEMERIS_TYPE,CLASSIFICATION_TYPE,NORAD_CAT_ID,ELEMENT_SET_NO,REV_AT_EPOCH,BSTAR,MEAN_MOTION_DOT,MEAN_MOTION_DDOT
SPACEMOBILE-008,2026-139A,2026-07-11T07:42:17.182944,15.12799068,.00048794,52.9941,152.9965,47.3692,312.7710,0,U,69589,999,363,.21806253E-4,.86E-6,0
SPACEMOBILE-009,2026-139B,2026-07-11T12:30:08.483328,15.12692406,.00051321,52.9933,152.1023,43.2568,316.8825,0,U,69590,999,366,.17235269E-4,.4E-7,0
SPACEMOBILE-010,2026-139C,2026-07-10T22:17:40.116192,15.12522766,.0004992,52.9937,154.8205,33.2635,326.8669,0,U,69591,999,358,.19201725E-4,.38E-6,0
